HAWK-8C                 
1 59449U 24066H   26068.47383543  .00002400  00000+0  21518-3 0  9993
2 59449  45.6068  72.8656 0003935 260.2975  99.7462 14.98770227104860
STARLINK-33953          
1 64028U 25102G   26068.53662858  .00003583  00000+0  30792-3 0  9997
2 64028  70.0005 114.6634 0003417 271.5079  88.5689 14.98325303 46030
