[{"OBJECT_NAME":"HAWK-8C","OBJECT_ID":"2024-066H","EPOCH":"2026-03-09T11:22:19.381152","MEAN_MOTION":14.98770227,"ECCENTRICITY":0.00039352,"INCLINATION":45.6068,"RA_OF_ASC_NODE":72.8656,"ARG_OF_PERICENTER":260.2975,"MEAN_ANOMALY":99.7462,"EPHEMERIS_TYPE":0,"CLASSIFICATION_TYPE":"U","NORAD_CAT_ID":59449,"ELEMENT_SET_NO":999,"REV_AT_EPOCH":10486,"BSTAR":0.00021518384,"MEAN_MOTION_DOT":2.4e-5,"MEAN_MOTION_DDOT":0},{"OBJECT_NAME":"STARLINK-33953","OBJECT_ID":"2025-102G","EPOCH":"2026-03-09T12:52:44.709312","MEAN_MOTION":14.98325303,"ECCENTRICITY":0.00034175,"INCLINATION":70.0005,"RA_OF_ASC_NODE":114.6634,"ARG_OF_PERICENTER":271.5079,"MEAN_ANOMALY":88.5689,"EPHEMERIS_TYPE":0,"CLASSIFICATION_TYPE":"U","NORAD_CAT_ID":64028,"ELEMENT_SET_NO":999,"REV_AT_EPOCH":4603,"BSTAR":0.00030791831,"MEAN_MOTION_DOT":3.583e-5,"MEAN_MOTION_DDOT":0}]
